PHOENIX                 
1 42706U 98067LP  17236.58413003  .00018938  00000-0  26162-3 0  9991
2 42706  51.6401  55.9110 0001917 182.4320 177.6663 15.57187584 15505
X-CUBESAT               
1 42707U 98067LQ  17236.58483520  .00019832  00000-0  27306-3 0  9998
2 42707  51.6394  55.9125 0001976 184.0506 176.0470 15.57242556 15490
QBEE50-LTU-OC           
1 42708U 98067LR  17236.58725069  .00019265  00000-0  26594-3 0  9994
2 42708  51.6395  55.9286 0002015 184.5626 175.5348 15.57193947 15456
ALTAIR PATHFINDER       
1 42711U 98067LS  17236.56422439  .00014722  00000-0  21244-3 0  9991
2 42711  51.6395  56.5212 0004903 153.4122 206.7122 15.56209847 15150
SHARC                   
1 42712U 98067LT  17236.56275737  .00012505  00000-0  18253-3 0  9992
2 42712  51.6400  56.5162 0002899 152.1384 207.9764 15.56065539 15399
ZA-AEROSAT              
1 42713U 98067LU  17236.60637882  .00016769  00000-0  23661-3 0  9996
2 42713  51.6398  56.0563 0002802 148.9747 211.1411 15.56710737 15164
LINK                    
1 42714U 98067LV  17236.59592425  .00023806  00000-0  32556-3 0  9991
2 42714  51.6388  55.9838 0002933 158.5912 201.5203 15.57300214 15273
CSUNSAT 1               
1 42715U 98067LW  17236.54834387  .00017152  00000-0  24199-3 0  9994
2 42715  51.6392  56.4152 0004965 145.3049 214.8267 15.56687907 15156
UPSAT                   
1 42716U 98067LX  17236.58203423  .00022026  00000-0  29983-3 0  9992
2 42716  51.6397  55.8937 0004780 216.2191 143.8478 15.57469163 15290
SPACECUBE               
1 42717U 98067LY  17236.59521386  .00018556  00000-0  25773-3 0  9991
2 42717  51.6393  55.9813 0004638 216.1195 143.9485 15.57050713 14538
HOOPOE                  
1 42718U 98067LZ  17236.58883465  .00020327  00000-0  27934-3 0  9990
2 42718  51.6397  55.9402 0004725 215.1785 144.8895 15.57269607 14537
CHALLENGER              
1 42721U 98067MA  17236.59385658  .00026201  00000-0  35336-3 0  9998
2 42721  51.6390  55.9690 0007981 198.7870 161.2829 15.57587688 14230
NJUST-1                 
1 42722U 98067MB  17236.49729955  .00018078  00000-0  25681-3 0  9995
2 42722  51.6397  56.8246 0007747 198.4531 161.6181 15.56441928 14214
UNSW-ECO                
1 42723U 98067MC  17236.54808922  .00019976  00000-0  27758-3 0  9999
2 42723  51.6398  56.4162 0007734 198.2552 161.8163 15.56964146 14209
DUTHSAT                 
1 42724U 98067MD  17235.89553363  .00024796  00000-0  33753-3 0  9991
2 42724  51.6395  59.5572 0006983 198.2471 161.8272 15.57379800 14020
LILACSAT-1              
1 42725U 98067ME  17236.56349088  .00018580  00000-0  26314-3 0  9993
2 42725  51.6397  56.5183 0006765 201.2728 158.7983 15.56510588 14142
NSIGHT-1                
1 42726U 98067MF  17236.58254609  .00014266  00000-0  20897-3 0  9997
2 42726  51.6400  56.6465 0006575 201.8286 158.2426 15.55822158 14130
SNUSAT-1                
1 42727U 98067MG  17236.56238774  .00021080  00000-0  29681-3 0  9993
2 42727  51.6391  56.5049 0008407 164.6265 195.4984 15.56563480 14094
QBITO                   
1 42728U 98067MH  17236.61555476  .00019671  00000-0  27504-3 0  9996
2 42728  51.6400  56.1192 0003979 205.7913 154.2881 15.56829428 13946
AALTO-2                 
1 42729U 98067MJ  17236.61537529  .00019347  00000-0  27062-3 0  9995
2 42729  51.6396  56.1158 0003978 205.8945 154.1848 15.56829864 13955
SUSAT                   
1 42730U 98067MK  17236.49007672  .00019875  00000-0  27914-3 0  9996
2 42730  51.6393  56.7774 0004077 202.8002 157.2809 15.56700187 13931
I-INSPIRE II            
1 42731U 98067ML  17236.35339956  .00026364  00000-0  36247-3 0  9995
2 42731  51.6390  57.3588 0007780 152.3502 207.7905 15.57068331 13956
POLYITAN-2-SAU          
1 42732U 98067MM  17235.52215105  .00018265  00000-0  25562-3 0  9992
2 42732  51.6386  61.5567 0007891 148.1928 211.9542 15.56838839 13821
SNUSAT-1B               
1 42733U 98067MN  17236.49098447  .00021854  00000-0  30569-3 0  9999
2 42733  51.6389  56.7775 0007729 153.0945 207.0449 15.56722709 13972
EXALTA-1                
1 42734U 98067MP  17235.51882905  .00020492  00000-0  28411-3 0  9992
2 42734  51.6389  61.5365 0009502 171.5780 188.5374 15.56990055 13774
AOXIANG-1               
1 42735U 98067MQ  17236.55954676  .00016305  00000-0  23181-3 0  9990
2 42735  51.6395  56.4898 0008390 195.6971 164.3762 15.56500620 15353
BEEAGLESAT              
1 42736U 98067MR  17236.55836987  .00017665  00000-0  24966-3 0  9997
2 42736  51.6394  56.4819 0008328 194.9614 165.1132 15.56595160 14041
ATLANTIS                
1 42737U 98067MS  17236.56923227  .00039235  00000-0  50501-3 0  9994
2 42737  51.6382  55.8011 0008520 195.4020 164.6714 15.58615727 13949
PROGRESS-MS 06          
1 42756U 17033A   17233.57712124  .00002025  00000-0  37781-4 0  9992
2 42756  51.6402  72.3480 0005060 159.9509 305.5186 15.54180642 10619
ISS DEB (ROSA)          
1 42813U 98067MT  17235.89042748  .00044519  00000-0  61487-3 0  9990
2 42813  51.6389  60.2702 0005491 173.0617 187.0452 15.56695211  9224
SOYUZ-MS 05             
1 42898U 17043A   17233.57712124  .00002025  00000-0  37781-4 0  9990
2 42898  51.6402  72.3480 0005060 159.9509 305.5186 15.54180642  3720
DRAGON CRS-12           
1 42904U 17045A   17233.57712124  .00002025  00000-0  37781-4 0  9990
2 42904  51.6402  72.3480 0005060 159.9509 305.5186 15.54180642  1074
